{"type": "FeatureCollection", "name": "city_parishes", "crs": {"type": "name", "properties": {"name": "urn:ogc:def:crs:OGC:1.3:CRS84"}}, "features": [{"type": "Feature", "properties": {"lat": 54.599368, "lon": -5.906454, "county": "Antrim", "parishid": 393, "parish": "St. Mathew's, Ballymacarrett", "canonical": "Belfast city: St. Mathew's, Ballymacarrett", "fill": "#E0BBE4", "fill-opacity": 0.6, "stroke": "#666666", "stroke-width": 1}, "geometry": {"type": "Point", "coordinates": [-5.90645427, 54.59936817]}}, {"type": "Feature", "properties": {"lat": 54.612202, "lon": -5.959647, "county": "Antrim", "parishid": 420, "parish": "Holy Cross", "canonical": "Belfast city: Holy Cross", "fill": "#C9E4DE", "fill-opacity": 0.6, "stroke": "#666666", "stroke-width": 1}, "geometry": {"type": "Point", "coordinates": [-5.95964736, 54.61220233999998]}}, {"type": "Feature", "properties": {"lat": 54.615859, "lon": -5.935215, "county": "Antrim", "parishid": 1126, "parish": "Holy Family", "canonical": "Belfast city: Holy Family", "fill": "#FFE5D9", "fill-opacity": 0.6, "stroke": "#666666", "stroke-width": 1}, "geometry": {"type": "Point", "coordinates": [-5.93521491, 54.61585908]}}, {"type": "Feature", "properties": {"lat": 54.589222, "lon": -5.924725, "county": "Antrim", "parishid": 1125, "parish": "Holy Rosary", "canonical": "Belfast city: Holy Rosary", "fill": "#FFFFBA", "fill-opacity": 0.6, "stroke": "#666666", "stroke-width": 1}, "geometry": {"type": "Point", "coordinates": [-5.92472459, 54.58922202]}}, {"type": "Feature", "properties": {"lat": 54.616555, "lon": -5.952399, "county": "Antrim", "parishid": 1132, "parish": "Sacred Heart", "canonical": "Belfast city: Sacred Heart", "fill": "#D4F1F4", "fill-opacity": 0.6, "stroke": "#666666", "stroke-width": 1}, "geometry": {"type": "Point", "coordinates": [-5.952399230000012, 54.61655541999997]}}, {"type": "Feature", "properties": {"lat": 54.576234, "lon": -5.944088, "county": "Antrim", "parishid": 1128, "parish": "St. Brigid's", "canonical": "Belfast city: St. Brigid's", "fill": "#F7D9C4", "fill-opacity": 0.6, "stroke": "#666666", "stroke-width": 1}, "geometry": {"type": "Point", "coordinates": [-5.944088, 54.57623389999998]}}, {"type": "Feature", "properties": {"lat": 54.580487, "lon": -6.022422, "county": "Antrim", "parishid": 425, "parish": "St. Joseph's", "canonical": "Belfast city: St. Joseph's", "fill": "#FFB3BA", "fill-opacity": 0.6, "stroke": "#666666", "stroke-width": 1}, "geometry": {"type": "Point", "coordinates": [-6.02242219, 54.58048739]}}, {"type": "Feature", "properties": {"lat": 54.594493, "lon": -5.926051, "county": "Antrim", "parishid": 426, "parish": "St. Malachy's", "canonical": "Belfast city: St. Malachy's", "fill": "#BAFFC9", "fill-opacity": 0.6, "stroke": "#666666", "stroke-width": 1}, "geometry": {"type": "Point", "coordinates": [-5.92605061, 54.59449316]}}, {"type": "Feature", "properties": {"lat": 54.603074, "lon": -5.932797, "county": "Antrim", "parishid": 427, "parish": "St. Mary's", "canonical": "Belfast city: St. Mary's", "fill": "#DBCDF0", "fill-opacity": 0.6, "stroke": "#666666", "stroke-width": 1}, "geometry": {"type": "Point", "coordinates": [-5.932890878816934, 54.60240436533848]}}, {"type": "Feature", "properties": {"lat": 54.605073, "lon": -5.931968, "county": "Antrim", "parishid": 428, "parish": "St. Patrick's", "canonical": "Belfast city: St. Patrick's", "fill": "#FAEDCB", "fill-opacity": 0.6, "stroke": "#666666", "stroke-width": 1}, "geometry": {"type": "Point", "coordinates": [-5.931968179999989, 54.60507323]}}, {"type": "Feature", "properties": {"lat": 54.589185, "lon": -5.96917, "county": "Antrim", "parishid": 1127, "parish": "St. Paul's", "canonical": "Belfast city: St. Paul's", "fill": "#BAE1FF", "fill-opacity": 0.6, "stroke": "#666666", "stroke-width": 1}, "geometry": {"type": "Point", "coordinates": [-5.96917017, 54.58918529999998]}}, {"type": "Feature", "properties": {"lat": 54.598926, "lon": -5.943006, "county": "Antrim", "parishid": 429, "parish": "St. Peter's", "canonical": "Belfast city: St. Peter's", "fill": "#E0BBE4", "fill-opacity": 0.6, "stroke": "#666666", "stroke-width": 1}, "geometry": {"type": "Point", "coordinates": [-5.94300648, 54.59892556]}}, {"type": "Feature", "properties": {"lat": 54.627808, "lon": -5.984594, "county": "Antrim", "parishid": 1129, "parish": "St. Vincent de Paul", "canonical": "Belfast city: St. Vincent de Paul", "fill": "#F7D9C4", "fill-opacity": 0.6, "stroke": "#666666", "stroke-width": 1}, "geometry": {"type": "Point", "coordinates": [-5.98459401, 54.62780807]}}, {"type": "Feature", "properties": {"lat": 54.588731, "lon": -5.940147, "county": "Antrim", "parishid": 1123, "parish": "Union Workhouse", "canonical": "Belfast city: Union Workhouse", "fill": "#FFDFBA", "fill-opacity": 0.6, "stroke": "#666666", "stroke-width": 1}, "geometry": {"type": "Point", "coordinates": [-5.94014691, 54.58873065]}}, {"type": "Feature", "properties": {"lat": 53.275061, "lon": -9.054475, "county": "Galway", "parishid": 638, "parish": "St. Nicholas East", "canonical": "Galway city: St. Nicholas East", "fill": "#C9E4DE", "fill-opacity": 0.6, "stroke": "#666666", "stroke-width": 1}, "geometry": {"type": "Point", "coordinates": [-9.034918785535021, 53.275124091102875]}}, {"type": "Feature", "properties": {"lat": 53.272179, "lon": -9.05214, "county": "Galway", "parishid": 637, "parish": "St. Nicholas South and West", "canonical": "Galway city: St. Nicholas South and West", "fill": "#FFDFD3", "fill-opacity": 0.6, "stroke": "#666666", "stroke-width": 1}, "geometry": {"type": "Point", "coordinates": [-9.032583955535012, 53.272241765353634]}}, {"type": "Feature", "properties": {"lat": 52.261456, "lon": -7.110984, "county": "Waterford", "parishid": 1109, "parish": "Holy Trinity", "canonical": "Waterford city: Holy Trinity", "fill": "#D4F1F4", "fill-opacity": 0.6, "stroke": "#666666", "stroke-width": 1}, "geometry": {"type": "Point", "coordinates": [-7.110887829075431, 52.26084960275194]}}, {"type": "Feature", "properties": {"lat": 52.261023, "lon": -7.113248, "county": "Waterford", "parishid": 1119, "parish": "St. Patrick's and St. Olaf's", "canonical": "Waterford city: St. Patrick's and St. Olaf's", "fill": "#FFE5D9", "fill-opacity": 0.6, "stroke": "#666666", "stroke-width": 1}, "geometry": {"type": "Point", "coordinates": [-7.113136272955848, 52.25907817669655]}}, {"type": "Feature", "properties": {"lat": 52.662437, "lon": -8.617158, "county": "Limerick", "parishid": 893, "parish": "St. John's", "canonical": "Limerick city: St. John's", "fill": "#BAE1FF", "fill-opacity": 0.6, "stroke": "#666666", "stroke-width": 1}, "geometry": {"type": "Point", "coordinates": [-8.617190622239177, 52.66127987534484]}}, {"type": "Feature", "properties": {"lat": 52.669441, "lon": -8.62017, "county": "Limerick", "parishid": 894, "parish": "St. Mary's", "canonical": "Limerick city: St. Mary's", "fill": "#F2C6DE", "fill-opacity": 0.6, "stroke": "#666666", "stroke-width": 1}, "geometry": {"type": "Point", "coordinates": [-8.620041825433903, 52.66787779797648]}}, {"type": "Feature", "properties": {"lat": 52.663758, "lon": -8.624081, "county": "Limerick", "parishid": 895, "parish": "St. Michael's", "canonical": "Limerick city: St. Michael's", "fill": "#BAFFC9", "fill-opacity": 0.6, "stroke": "#666666", "stroke-width": 1}, "geometry": {"type": "Point", "coordinates": [-8.62408065, 52.66375782]}}, {"type": "Feature", "properties": {"lat": 52.669657, "lon": -8.628704, "county": "Limerick", "parishid": 896, "parish": "St. Munchin's", "canonical": "Limerick city: St. Munchin's", "fill": "#C6DEF1", "fill-opacity": 0.6, "stroke": "#666666", "stroke-width": 1}, "geometry": {"type": "Point", "coordinates": [-8.630474441201459, 52.66779939548264]}}, {"type": "Feature", "properties": {"lat": 52.665586, "lon": -8.609633, "county": "Limerick", "parishid": 897, "parish": "St. Patrick's", "canonical": "Limerick city: St. Patrick's", "fill": "#E0BBE4", "fill-opacity": 0.6, "stroke": "#666666", "stroke-width": 1}, "geometry": {"type": "Point", "coordinates": [-8.60963335, 52.665585689999986]}}, {"type": "Feature", "properties": {"lat": 51.896475, "lon": -8.416557, "county": "Cork", "parishid": 38, "parish": "Blackrock", "canonical": "Cork city: Blackrock", "fill": "#FFDFD3", "fill-opacity": 0.6, "stroke": "#666666", "stroke-width": 1}, "geometry": {"type": "Point", "coordinates": [-8.416492622716957, 51.89529220902362]}}, {"type": "Feature", "properties": {"lat": 51.898963, "lon": -8.474194, "county": "Cork", "parishid": 39, "parish": "Ss Peter and Paul's", "canonical": "Cork city: Ss Peter and Paul's", "fill": "#C9E4DE", "fill-opacity": 0.6, "stroke": "#666666", "stroke-width": 1}, "geometry": {"type": "Point", "coordinates": [-8.4741939, 51.89896294]}}, {"type": "Feature", "properties": {"lat": 51.894229, "lon": -8.471209, "county": "Cork", "parishid": 40, "parish": "St. Finbarr's (South)", "canonical": "Cork city: St. Finbarr's (South)", "fill": "#FFB3BA", "fill-opacity": 0.6, "stroke": "#666666", "stroke-width": 1}, "geometry": {"type": "Point", "coordinates": [-8.471241113641518, 51.894031428807814]}}, {"type": "Feature", "properties": {"lat": 51.90469, "lon": -8.476143, "county": "Cork", "parishid": 41, "parish": "St. Mary's", "canonical": "Cork city: St. Mary's", "fill": "#DBCDF0", "fill-opacity": 0.6, "stroke": "#666666", "stroke-width": 1}, "geometry": {"type": "Point", "coordinates": [-8.47614344, 51.90469018]}}, {"type": "Feature", "properties": {"lat": 51.90181, "lon": -8.463616, "county": "Cork", "parishid": 42, "parish": "St. Patrick's", "canonical": "Cork city: St. Patrick's", "fill": "#FFFFBA", "fill-opacity": 0.6, "stroke": "#666666", "stroke-width": 1}, "geometry": {"type": "Point", "coordinates": [-8.46361576, 51.90180972]}}, {"type": "Feature", "properties": {"lat": 52.096762, "lon": -8.700643, "county": "Cork", "parishid": 110, "parish": "Kilpadder", "canonical": "Kilpadder", "fill": "#E0BBE4", "fill-opacity": 0.6, "stroke": "#666666", "stroke-width": 1}, "geometry": {"type": "Point", "coordinates": [-8.381044521891727, 52.24767802729689]}}, {"type": "Feature", "properties": {"lat": 52.06217, "lon": -8.279742, "county": "Cork", "parishid": 111, "parish": "Kilshannig", "canonical": "Kilshannig", "fill": "#FFE5D9", "fill-opacity": 0.6, "stroke": "#666666", "stroke-width": 1}, "geometry": {"type": "Point", "coordinates": [-8.36176680521089, 52.24506317687532]}}, {"type": "Feature", "properties": {"lat": 52.655051, "lon": -7.259338, "county": "Kilkenny", "parishid": 990, "parish": "St. Canice's", "canonical": "Kilkenny city: St. Canice's", "fill": "#FFDFBA", "fill-opacity": 0.6, "stroke": "#666666", "stroke-width": 1}, "geometry": {"type": "Point", "coordinates": [-7.2593381, 52.65505117999997]}}, {"type": "Feature", "properties": {"lat": 52.65297, "lon": -7.244268, "county": "Kilkenny", "parishid": 991, "parish": "St. John's", "canonical": "Kilkenny city: St. John's", "fill": "#D4F1F4", "fill-opacity": 0.6, "stroke": "#666666", "stroke-width": 1}, "geometry": {"type": "Point", "coordinates": [-7.244268479999988, 52.65296964999999]}}, {"type": "Feature", "properties": {"lat": 52.652387, "lon": -7.25724, "county": "Kilkenny", "parishid": 992, "parish": "St. Mary's", "canonical": "Kilkenny city: St. Mary's", "fill": "#BAE1FF", "fill-opacity": 0.6, "stroke": "#666666", "stroke-width": 1}, "geometry": {"type": "Point", "coordinates": [-7.25724011, 52.65238652999999]}}, {"type": "Feature", "properties": {"lat": 52.648306, "lon": -7.250186, "county": "Kilkenny", "parishid": 993, "parish": "St. Patrick's", "canonical": "Kilkenny city: St. Patrick's", "fill": "#C9E4DE", "fill-opacity": 0.6, "stroke": "#666666", "stroke-width": 1}, "geometry": {"type": "Point", "coordinates": [-7.25018622, 52.64830642]}}, {"type": "Feature", "properties": {"lat": 52.655657, "lon": -7.242921, "county": "Kilkenny", "parishid": 994, "parish": "Workhouse", "canonical": "Kilkenny city: Workhouse", "fill": "#FAEDCB", "fill-opacity": 0.6, "stroke": "#666666", "stroke-width": 1}, "geometry": {"type": "Point", "coordinates": [-7.24292144, 52.6556575]}}, {"type": "Feature", "properties": {"lat": 53.3547, "lon": -6.288772, "county": "Dublin", "parishid": 511, "parish": "Aughrim St.", "canonical": "Dublin city: Aughrim St.", "fill": "#FFDFD3", "fill-opacity": 0.6, "stroke": "#666666", "stroke-width": 1}, "geometry": {"type": "Point", "coordinates": [-6.28877169, 53.35470044999999]}}, {"type": "Feature", "properties": {"lat": 53.358148, "lon": -6.268576, "county": "Dublin", "parishid": 512, "parish": "Berkeley Road", "canonical": "Dublin city: Berkeley Road", "fill": "#FFB3BA", "fill-opacity": 0.6, "stroke": "#666666", "stroke-width": 1}, "geometry": {"type": "Point", "coordinates": [-6.268576380000011, 53.358148149999984]}}, {"type": "Feature", "properties": {"lat": 53.361747, "lon": -6.278122, "county": "Dublin", "parishid": 513, "parish": "Cabra", "canonical": "Dublin city: Cabra", "fill": "#C6DEF1", "fill-opacity": 0.6, "stroke": "#666666", "stroke-width": 1}, "geometry": {"type": "Point", "coordinates": [-6.27812183, 53.361746689999976]}}, {"type": "Feature", "properties": {"lat": 53.332587, "lon": -6.268035, "county": "Dublin", "parishid": 517, "parish": "Harrington St.", "canonical": "Dublin city: Harrington St.", "fill": "#FFFFBA", "fill-opacity": 0.6, "stroke": "#666666", "stroke-width": 1}, "geometry": {"type": "Point", "coordinates": [-6.26803532, 53.33258712]}}, {"type": "Feature", "properties": {"lat": 53.327934, "lon": -6.263915, "county": "Dublin", "parishid": 518, "parish": "Rathmines", "canonical": "Dublin city: Rathmines", "fill": "#C9E4DE", "fill-opacity": 0.6, "stroke": "#666666", "stroke-width": 1}, "geometry": {"type": "Point", "coordinates": [-6.26391494, 53.32793428999999]}}, {"type": "Feature", "properties": {"lat": 53.356879, "lon": -6.246303, "county": "Dublin", "parishid": 492, "parish": "St. Agatha's", "canonical": "Dublin city: St. Agatha's", "fill": "#FAEDCB", "fill-opacity": 0.6, "stroke": "#666666", "stroke-width": 1}, "geometry": {"type": "Point", "coordinates": [-6.24630261, 53.35687912999999]}}, {"type": "Feature", "properties": {"lat": 53.343045, "lon": -6.249288, "county": "Dublin", "parishid": 493, "parish": "St. Andrew's", "canonical": "Dublin city: St. Andrew's", "fill": "#BAFFC9", "fill-opacity": 0.6, "stroke": "#666666", "stroke-width": 1}, "geometry": {"type": "Point", "coordinates": [-6.24928847, 53.34304531]}}, {"type": "Feature", "properties": {"lat": 53.343661, "lon": -6.273654, "county": "Dublin", "parishid": 494, "parish": "St. Audoen's", "canonical": "Dublin city: St. Audoen's", "fill": "#F2C6DE", "fill-opacity": 0.6, "stroke": "#666666", "stroke-width": 1}, "geometry": {"type": "Point", "coordinates": [-6.27365416, 53.34293112382681]}}, {"type": "Feature", "properties": {"lat": 53.342115, "lon": -6.278613, "county": "Dublin", "parishid": 495, "parish": "St. Catherine's", "canonical": "Dublin city: St. Catherine's", "fill": "#D4F1F4", "fill-opacity": 0.6, "stroke": "#666666", "stroke-width": 1}, "geometry": {"type": "Point", "coordinates": [-6.278547985521667, 53.341502970575796]}}, {"type": "Feature", "properties": {"lat": 53.343047, "lon": -6.287797, "county": "Dublin", "parishid": 496, "parish": "St. James'", "canonical": "Dublin city: St. James'", "fill": "#FFFFBA", "fill-opacity": 0.6, "stroke": "#666666", "stroke-width": 1}, "geometry": {"type": "Point", "coordinates": [-6.28779663, 53.34304690999998]}}, {"type": "Feature", "properties": {"lat": 53.350986, "lon": -6.242218, "county": "Dublin", "parishid": 497, "parish": "St. Laurence O'Toole's", "canonical": "Dublin city: St. Laurence O'Toole's", "fill": "#C6DEF1", "fill-opacity": 0.6, "stroke": "#666666", "stroke-width": 1}, "geometry": {"type": "Point", "coordinates": [-6.242218329999988, 53.35098572999998]}}, {"type": "Feature", "properties": {"lat": 53.350927, "lon": -6.25903, "county": "Dublin", "parishid": 520, "parish": "St. Mary's (Pro-Cathedral)", "canonical": "Dublin city: St. Mary's (Pro-Cathedral)", "fill": "#F7D9C4", "fill-opacity": 0.6, "stroke": "#666666", "stroke-width": 1}, "geometry": {"type": "Point", "coordinates": [-6.25902996, 53.350926629999975]}}, {"type": "Feature", "properties": {"lat": 53.344845, "lon": -6.269131, "county": "Dublin", "parishid": 498, "parish": "St. Michael and John's", "canonical": "Dublin city: St. Michael and John's", "fill": "#BAFFC9", "fill-opacity": 0.6, "stroke": "#666666", "stroke-width": 1}, "geometry": {"type": "Point", "coordinates": [-6.26913054, 53.34484483]}}, {"type": "Feature", "properties": {"lat": 53.348682, "lon": -6.275269, "county": "Dublin", "parishid": 499, "parish": "St. Michan's", "canonical": "Dublin city: St. Michan's", "fill": "#FFB3BA", "fill-opacity": 0.6, "stroke": "#666666", "stroke-width": 1}, "geometry": {"type": "Point", "coordinates": [-6.27526879, 53.34910138748265]}}, {"type": "Feature", "properties": {"lat": 53.341125, "lon": -6.273561, "county": "Dublin", "parishid": 500, "parish": "St. Nicholas' (Without)", "canonical": "Dublin city: St. Nicholas' (Without)", "fill": "#D4F1F4", "fill-opacity": 0.6, "stroke": "#666666", "stroke-width": 1}, "geometry": {"type": "Point", "coordinates": [-6.273497472716957, 53.339725086564776]}}, {"type": "Feature", "properties": {"lat": 53.346441, "lon": -6.277552, "county": "Dublin", "parishid": 501, "parish": "St. Paul's", "canonical": "Dublin city: St. Paul's", "fill": "#F2C6DE", "fill-opacity": 0.6, "stroke": "#666666", "stroke-width": 1}, "geometry": {"type": "Point", "coordinates": [-6.277552180000012, 53.347051162512976]}}, {"type": "Feature", "properties": {"lat": 53.254299, "lon": -6.121411, "county": "Dublin", "parishid": 505, "parish": "Ballybrack", "canonical": "Ballybrack", "fill": "#FFE5D9", "fill-opacity": 0.6, "stroke": "#666666", "stroke-width": 1}, "geometry": {"type": "Point", "coordinates": [-6.121411330000011, 53.25429945000001]}}, {"type": "Feature", "properties": {"lat": 53.261414, "lon": -6.149297, "county": "Dublin", "parishid": 510, "parish": "Cabinteely", "canonical": "Cabinteely", "fill": "#FAEDCB", "fill-opacity": 0.6, "stroke": "#666666", "stroke-width": 1}, "geometry": {"type": "Point", "coordinates": [-6.14929657, 53.26141407]}}, {"type": "Feature", "properties": {"lat": 53.27763, "lon": -6.105872, "county": "Dublin", "parishid": 519, "parish": "Dalkey", "canonical": "Dalkey", "fill": "#F7D9C4", "fill-opacity": 0.6, "stroke": "#666666", "stroke-width": 1}, "geometry": {"type": "Point", "coordinates": [-6.105871809999988, 53.27763019]}}, {"type": "Feature", "properties": {"lat": 53.287891, "lon": -6.124948, "county": "Dublin", "parishid": 522, "parish": "Glasthule", "canonical": "Glasthule", "fill": "#E0BBE4", "fill-opacity": 0.6, "stroke": "#666666", "stroke-width": 1}, "geometry": {"type": "Point", "coordinates": [-6.124947640000012, 53.28789087999997]}}, {"type": "Feature", "properties": {"lat": 53.292777, "lon": -6.136165, "county": "Dublin", "parishid": 523, "parish": "Kingstown", "canonical": "Kingstown", "fill": "#C6DEF1", "fill-opacity": 0.6, "stroke": "#666666", "stroke-width": 1}, "geometry": {"type": "Point", "coordinates": [-6.13616476, 53.29277666]}}, {"type": "Feature", "properties": {"lat": 53.292803, "lon": -6.152875, "county": "Dublin", "parishid": 526, "parish": "Monkstown", "canonical": "Monkstown", "fill": "#C9E4DE", "fill-opacity": 0.6, "stroke": "#666666", "stroke-width": 1}, "geometry": {"type": "Point", "coordinates": [-6.15287524, 53.292803]}}, {"type": "Feature", "properties": {"lat": 53.321477, "lon": -6.391892, "county": "Dublin", "parishid": 470, "parish": "Clondalkin", "canonical": "Clondalkin", "fill": "#DBCDF0", "fill-opacity": 0.6, "stroke": "#666666", "stroke-width": 1}, "geometry": {"type": "Point", "coordinates": [-6.391891509999989, 53.32147719]}}, {"type": "Feature", "properties": {"lat": 53.359378, "lon": -6.439188, "county": "Dublin", "parishid": 472, "parish": "Lucan", "canonical": "Lucan", "fill": "#BAE1FF", "fill-opacity": 0.6, "stroke": "#666666", "stroke-width": 1}, "geometry": {"type": "Point", "coordinates": [-6.43918827000001, 53.359378209999974]}}, {"type": "Feature", "properties": {"lat": 53.356538, "lon": -6.369975, "county": "Dublin", "parishid": 471, "parish": "Palmerstown", "canonical": "Palmerstown", "fill": "#FFB3BA", "fill-opacity": 0.6, "stroke": "#666666", "stroke-width": 1}, "geometry": {"type": "Point", "coordinates": [-6.36997475, 53.356538419999985]}}, {"type": "Feature", "properties": {"lat": 53.334624, "lon": -6.241375, "county": "Dublin", "parishid": 529, "parish": "Haddington Road", "canonical": "Haddington Road", "fill": "#FFDFBA", "fill-opacity": 0.6, "stroke": "#666666", "stroke-width": 1}, "geometry": {"type": "Point", "coordinates": [-6.24137468, 53.33462387]}}, {"type": "Feature", "properties": {"lat": 53.319118, "lon": -6.230935, "county": "Dublin", "parishid": 516, "parish": "Donnybrook", "canonical": "Donnybrook", "fill": "#E0BBE4", "fill-opacity": 0.6, "stroke": "#666666", "stroke-width": 1}, "geometry": {"type": "Point", "coordinates": [-6.23093466, 53.31911769]}}, {"type": "Feature", "properties": {"lat": 53.30029, "lon": -6.175031, "county": "Dublin", "parishid": 506, "parish": "Blackrock", "canonical": "Blackrock", "fill": "#FFE5D9", "fill-opacity": 0.6, "stroke": "#666666", "stroke-width": 1}, "geometry": {"type": "Point", "coordinates": [-6.175031, 53.30029]}}, {"type": "Feature", "properties": {"lat": 53.305589, "lon": -6.198487, "county": "Dublin", "parishid": 508, "parish": "Booterstown", "canonical": "Booterstown", "fill": "#FFDFD3", "fill-opacity": 0.6, "stroke": "#666666", "stroke-width": 1}, "geometry": {"type": "Point", "coordinates": [-6.198487, 53.305589]}}, {"type": "Feature", "properties": {"lat": 53.347022, "lon": -6.339586, "county": "Dublin", "parishid": 514, "parish": "Chapelizod", "canonical": "Chapelizod", "fill": "#C9E4DE", "fill-opacity": 0.6, "stroke": "#666666", "stroke-width": 1}, "geometry": {"type": "Point", "coordinates": [-6.339085846309694, 53.34418544108317]}}, {"type": "Feature", "properties": {"lat": 53.363281, "lon": -6.238542, "county": "Dublin", "parishid": 477, "parish": "Fairview", "canonical": "Fairview", "fill": "#F2C6DE", "fill-opacity": 0.6, "stroke": "#666666", "stroke-width": 1}, "geometry": {"type": "Point", "coordinates": [-6.238605607283057, 53.3629951791592]}}, {"type": "Feature", "properties": {"lat": 53.317164, "lon": -6.271152, "county": "Dublin", "parishid": 531, "parish": "Rathgar", "canonical": "Rathgar", "fill": "#FFFFBA", "fill-opacity": 0.6, "stroke": "#666666", "stroke-width": 1}, "geometry": {"type": "Point", "coordinates": [-6.27115156, 53.31716375]}}, {"type": "Feature", "properties": {"lat": 53.309909, "lon": -6.281605, "county": "Dublin", "parishid": 530, "parish": "Terenure", "canonical": "Terenure", "fill": "#C6DEF1", "fill-opacity": 0.6, "stroke": "#666666", "stroke-width": 1}, "geometry": {"type": "Point", "coordinates": [-6.28160461, 53.30990859]}}, {"type": "Feature", "properties": {"lat": 53.203621, "lon": -6.110545, "county": "Wicklow", "parishid": 509, "parish": "Bray", "canonical": "Bray", "fill": "#DBCDF0", "fill-opacity": 0.6, "stroke": "#666666", "stroke-width": 1}, "geometry": {"type": "Point", "coordinates": [-6.11054484, 53.20362137]}}, {"type": "Feature", "properties": {"lat": 53.209131, "lon": -6.115647, "county": "Wicklow", "parishid": 524, "parish": "Little Bray", "canonical": "Little Bray", "fill": "#E0BBE4", "fill-opacity": 0.6, "stroke": "#666666", "stroke-width": 1}, "geometry": {"type": "Point", "coordinates": [-6.116797821094844, 53.208289227801515]}}, {"type": "Feature", "properties": {"lat": 53.242761, "lon": -6.132421, "county": "Wicklow", "parishid": 1134, "parish": "Rathdown Union Workhouse", "canonical": "Rathdown Union Workhouse", "fill": "#FFDFBA", "fill-opacity": 0.6, "stroke": "#666666", "stroke-width": 1}, "geometry": {"type": "Point", "coordinates": [-6.13242062, 53.24276053999998]}}, {"type": "Feature", "properties": {"lat": 53.146594, "lon": -6.063506, "county": "Wicklow", "parishid": 3790, "parish": "Greystones", "canonical": "Greystones", "fill": "#FFB3BA", "fill-opacity": 0.6, "stroke": "#666666", "stroke-width": 1}, "geometry": {"type": "Point", "coordinates": [-6.062722221735968, 53.14658628401435]}}, {"type": "Feature", "properties": {"lat": 53.332349, "lon": -6.213833, "county": "Dublin", "parishid": 528, "parish": "Sandymount", "canonical": "Sandymount", "fill": "#FFE5D9", "fill-opacity": 0.6, "stroke": "#666666", "stroke-width": 1}, "geometry": {"type": "Point", "coordinates": [-6.213854957729826, 53.33229055718959]}}]}