{
  "type": "FeatureCollection",
  "features": [
    {
      "type": "Feature",
      "geometry": {
        "type": "Point",
        "coordinates": [
          -6.6528,
          54.3503
        ]
      },
      "properties": {
        "dataset": "Diocesan Offices",
        "name": "Armagh",
        "address": "Cathedral Rd, Armagh BT61 7QY",
        "note": "http://www.armagharchdiocese.org/",
        "bishop": "+Eamon Martin",
        "marker-color": "Red",
        "marker-symbol": "Office",
        "marker-size": "Large"
      }
    },
    {
      "type": "Feature",
      "geometry": {
        "type": "Point",
        "coordinates": [
          -6.9611,
          54.249
        ]
      },
      "properties": {
        "dataset": "Diocesan Offices",
        "name": "Clogher",
        "address": "Bishop's House, Dublin Rd, Monaghan",
        "note": "http://www.clogherdiocese.ie/",
        "bishop": "+Lawrence Duffy",
        "marker-color": "Red",
        "marker-symbol": "Office",
        "marker-size": "small"
      }
    },
    {
      "type": "Feature",
      "geometry": {
        "type": "Point",
        "coordinates": [
          -7.3236,
          54.9966
        ]
      },
      "properties": {
        "dataset": "Diocesan Offices",
        "name": "Derry",
        "address": "26 Bishop St, Derry BT48 6PP",
        "note": "http://www.derrydiocese.org/",
        "bishop": "+Donal McKeown",
        "marker-color": "Red",
        "marker-symbol": "Office",
        "marker-size": "small"
      }
    },
    {
      "type": "Feature",
      "geometry": {
        "type": "Point",
        "coordinates": [
          -5.9392,
          54.6254
        ]
      },
      "properties": {
        "dataset": "Diocesan Offices",
        "name": "Down and Connor",
        "address": "74 Somerton Rd, Belfast BT15 4DE",
        "note": "http://www.downandconnor.org/",
        "bishop": "+Alan McGuckian SJ",
        "marker-color": "Red",
        "marker-symbol": "Office",
        "marker-size": "small"
      }
    },
    {
      "type": "Feature",
      "geometry": {
        "type": "Point",
        "coordinates": [
          -6.3406,
          54.1688
        ]
      },
      "properties": {
        "dataset": "Diocesan Offices",
        "name": "Dromore",
        "address": "44 Armagh Rd, Newry BT35 6PN",
        "note": "http://www.dromorediocese.org/",
        "bishop": "+Vacant",
        "marker-color": "Red",
        "marker-symbol": "Office",
        "marker-size": "small"
      }
    },
    {
      "type": "Feature",
      "geometry": {
        "type": "Point",
        "coordinates": [
          -7.3609,
          53.9909
        ]
      },
      "properties": {
        "dataset": "Diocesan Offices",
        "name": "Kilmore",
        "address": "Cullies, Cavan, H12 E5C7",
        "note": "http://www.kilmorediocese.ie/",
        "bishop": "+Martin Hayes",
        "marker-color": "Red",
        "marker-symbol": "Office",
        "marker-size": "small"
      }
    },
    {
      "type": "Feature",
      "geometry": {
        "type": "Point",
        "coordinates": [
          -6.2508,
          53.3678
        ]
      },
      "properties": {
        "dataset": "Diocesan Offices",
        "name": "Dublin",
        "address": "Archbishop's House, Drumcondra, Dublin 9",
        "note": "http://www.dublindiocese.ie/",
        "bishop": "+Dermot Farrell",
        "marker-color": "Red",
        "marker-symbol": "Office",
        "marker-size": "Large"
      }
    },
    {
      "type": "Feature",
      "geometry": {
        "type": "Point",
        "coordinates": [
          -6.4633,
          52.3369
        ]
      },
      "properties": {
        "dataset": "Diocesan Offices",
        "name": "Ferns",
        "address": "Bishop's House, Summerhill, Wexford",
        "note": "http://www.ferns.ie/",
        "bishop": "+Gerard Nash",
        "marker-color": "Red",
        "marker-symbol": "Office",
        "marker-size": "small"
      }
    },
    {
      "type": "Feature",
      "geometry": {
        "type": "Point",
        "coordinates": [
          -6.9292,
          52.8417
        ]
      },
      "properties": {
        "dataset": "Diocesan Offices",
        "name": "Kildare and Leighlin",
        "address": "Bishop's House, Dublin Rd, Carlow",
        "note": "http://www.kandle.ie/",
        "bishop": "+Denis Nulty",
        "marker-color": "Red",
        "marker-symbol": "Office",
        "marker-size": "small"
      }
    },
    {
      "type": "Feature",
      "geometry": {
        "type": "Point",
        "coordinates": [
          -7.2448,
          52.6541
        ]
      },
      "properties": {
        "dataset": "Diocesan Offices",
        "name": "Ossory",
        "address": "Bishop's House, James's St, Kilkenny",
        "note": "http://www.ossory.ie/",
        "bishop": "+Vacant",
        "marker-color": "Red",
        "marker-symbol": "Office",
        "marker-size": "small"
      }
    },
    {
      "type": "Feature",
      "geometry": {
        "type": "Point",
        "coordinates": [
          -7.1101,
          52.2593
        ]
      },
      "properties": {
        "dataset": "Diocesan Offices",
        "name": "Waterford and Lismore",
        "address": "Edmund Rice Centre, Barrack St, Waterford",
        "note": "http://www.waterfordlismore.ie/",
        "bishop": "+Alphonsus Cullinan",
        "marker-color": "Red",
        "marker-symbol": "Office",
        "marker-size": "small"
      }
    },
    {
      "type": "Feature",
      "geometry": {
        "type": "Point",
        "coordinates": [
          -7.8123,
          52.6816
        ]
      },
      "properties": {
        "dataset": "Diocesan Offices",
        "name": "Cashel and Emly",
        "address": "Archbishop's House, Cathedral St, Thurles",
        "note": "http://www.cashel-emly.ie/",
        "bishop": "+Kieran O'Reilly SMA",
        "marker-color": "Red",
        "marker-symbol": "Office",
        "marker-size": "Large"
      }
    },
    {
      "type": "Feature",
      "geometry": {
        "type": "Point",
        "coordinates": [
          -8.295,
          51.8509
        ]
      },
      "properties": {
        "dataset": "Diocesan Offices",
        "name": "Cloyne",
        "address": "Bishop's House, Cobh, Co. Cork",
        "note": "http://www.cloynediocese.ie/",
        "bishop": "+William Crean",
        "marker-color": "Red",
        "marker-symbol": "Office",
        "marker-size": "small"
      }
    },
    {
      "type": "Feature",
      "geometry": {
        "type": "Point",
        "coordinates": [
          -8.4756,
          51.8985
        ]
      },
      "properties": {
        "dataset": "Diocesan Offices",
        "name": "Cork and Ross",
        "address": "Redemption Rd, Cork, T23 Y659",
        "note": "http://www.corkandross.org/",
        "bishop": "+Fintan Gavin",
        "marker-color": "Red",
        "marker-symbol": "Office",
        "marker-size": "small"
      }
    },
    {
      "type": "Feature",
      "geometry": {
        "type": "Point",
        "coordinates": [
          -9.5044,
          52.0599
        ]
      },
      "properties": {
        "dataset": "Diocesan Offices",
        "name": "Kerry",
        "address": "Cathedral Walk, Killarney, Co. Kerry",
        "note": "http://www.dioceseofkerry.ie/",
        "bishop": "+Raymond Browne",
        "marker-color": "Red",
        "marker-symbol": "Office",
        "marker-size": "small"
      }
    },
    {
      "type": "Feature",
      "geometry": {
        "type": "Point",
        "coordinates": [
          -8.9864,
          52.8435
        ]
      },
      "properties": {
        "dataset": "Diocesan Offices",
        "name": "Killaloe",
        "address": "Westbourne, Ennis, Co. Clare",
        "note": "http://www.killaloediocese.ie/",
        "bishop": "+Fintan Monahan",
        "marker-color": "Red",
        "marker-symbol": "Office",
        "marker-size": "small"
      }
    },
    {
      "type": "Feature",
      "geometry": {
        "type": "Point",
        "coordinates": [
          -8.6319,
          52.6377
        ]
      },
      "properties": {
        "dataset": "Diocesan Offices",
        "name": "Limerick",
        "address": "Bishop's House, Dooradoyle, Limerick",
        "note": "http://www.limerickdiocese.org/",
        "bishop": "+Brendan Leahy",
        "marker-color": "Red",
        "marker-symbol": "Office",
        "marker-size": "small"
      }
    },
    {
      "type": "Feature",
      "geometry": {
        "type": "Point",
        "coordinates": [
          -8.8509,
          53.5145
        ]
      },
      "properties": {
        "dataset": "Diocesan Offices",
        "name": "Tuam",
        "address": "Bishop's House, Galway Rd, Tuam",
        "note": "http://www.tuamarchdiocese.org/",
        "bishop": "+Francis Duffy",
        "marker-color": "Red",
        "marker-symbol": "Office",
        "marker-size": "medium"
      }
    },
    {
      "type": "Feature",
      "geometry": {
        "type": "Point",
        "coordinates": [
          -8.5792,
          53.9017
        ]
      },
      "properties": {
        "dataset": "Diocesan Offices",
        "name": "Achonry",
        "address": "Bishop’s House, Convent Road, Ballaghaderreen, Co. Roscommon F45 H004",
        "note": "http://www.achonrydiocese.org/",
        "bishop": "+See Elphin",
        "marker-color": "Red",
        "marker-symbol": "Office",
        "marker-size": "small"
      }
    },
    {
      "type": "Feature",
      "geometry": {
        "type": "Point",
        "coordinates": [
          -9.0568,
          53.2707
        ]
      },
      "properties": {
        "dataset": "Diocesan Offices",
        "name": "Clonfert",
        "address": "Bishop's House, Galway City",
        "note": "http://www.clonfertdiocese.ie/",
        "bishop": "+See Galway",
        "marker-color": "Red",
        "marker-symbol": "Office",
        "marker-size": "small"
      }
    },
    {
      "type": "Feature",
      "geometry": {
        "type": "Point",
        "coordinates": [
          -9.1569,
          54.1109
        ]
      },
      "properties": {
        "dataset": "Diocesan Offices",
        "name": "Killala",
        "address": "Bishop's House, Ballina, Co. Mayo",
        "note": "http://www.killaladiocese.org/",
        "bishop": "+Francis Duffy (Apostolic Administrator)",
        "marker-color": "Red",
        "marker-symbol": "Office",
        "marker-size": "small"
      }
    },
    {
      "type": "Feature",
      "geometry": {
        "type": "Point",
        "coordinates": [
          -8.4694,
          54.2697
        ]
      },
      "properties": {
        "dataset": "Diocesan Offices",
        "name": "Elphin",
        "address": "Bishop's House, St Mary's, Sligo",
        "note": "http://www.elphindiocese.ie/",
        "bishop": "+Kevin Doran",
        "marker-color": "Red",
        "marker-symbol": "Office",
        "marker-size": "small"
      }
    },
    {
      "type": "Feature",
      "geometry": {
        "type": "Point",
        "coordinates": [
          -9.0568,
          53.2707
        ]
      },
      "properties": {
        "dataset": "Diocesan Offices",
        "name": "Galway, Kilfenora, Kilmacduagh",
        "address": "Bishop's House, Galway City",
        "note": "http://www.galwaydiocese.ie/",
        "bishop": "+Michael Duignan",
        "marker-color": "Red",
        "marker-symbol": "Office",
        "marker-size": "small"
      }
    },
    {
      "type": "Feature",
      "geometry": {
        "type": "Point",
        "coordinates": [
          -7.73333,
          54.95
        ]
      },
      "properties": {
        "dataset": "Diocesan Offices",
        "name": "Raphoe",
        "address": "Árd Adhamhnáin, Cathedral Road, Letterkenny",
        "note": "https://www.raphoediocese.ie/",
        "bishop": "+Niall Coll",
        "marker-color": "Red",
        "marker-symbol": "Office",
        "marker-size": "small"
      }
    },
    {
      "type": "Feature",
      "geometry": {
        "type": "Point",
        "coordinates": [
          -7.338138,
          53.525932
        ]
      },
      "properties": {
        "dataset": "Diocesan Offices",
        "name": "Meath",
        "address": "Bishop's House, Dublin Road, Mullingar, Co. Westmeath, N91 DW32, Ireland",
        "note": "https://www.dioceseofmeath.ie/",
        "bishop": "+Thomas Deenihan",
        "marker-color": "Red",
        "marker-symbol": "Office",
        "marker-size": "small"
      }
    },
    {
  "type": "Feature",
  "geometry": {
    "type": "Point",
    "coordinates": [
      -8.59,   53.1997
    ]
  },
  "properties": {
    "dataset": "Diocesan Offices",
    "name": "Clonfert",
    "address": "Clonfert Diocesan Office, Coorheen, Loughrea, H62 TD82 Galway",
    "note": "Tel: +353 (0)91 841560, Email: office@clonfertdiocese.ie",
    "bishop": "See Galway",
 "note": "https://clonfertgalway.ie",

    "marker-color": "Red",
    "marker-symbol": "Office",
    "marker-size": "small"
  }
},

{
  "type": "Feature",
  "geometry": {
    "type": "Point",
    "coordinates": [
      -7.7804,
      53.7876
    ]
  },
  "properties": {
    "dataset": "Diocesan Offices",
    "name": "Ardagh and Clonmacnois",
    "address": "Diocesan Offices, St. Michael's, Longford",
    "note": "https://ardaghdiocese.org, Tel: (043) 3346432",
    "bishop": "+Paul Connell",
    "marker-color": "Red",
    "marker-symbol": "Office",
    "marker-size": "small"
  }
}

  ]
}
